start=new Date('2022-07-06T00:00:00.000Z').valueOf();
sats=[{"ELEMENT_SET_NO":"999","REV_AT_EPOCH":"11431","INCLINATION":"53.0547","TLE_LINE2":"2 45783  53.0547 106.3696 0001501  74.2883 285.8271 15.06407632114310","DECAY_DATE":null,"PERIOD":"95.592","GP_ID":"207474200","TIME_SYSTEM":"UTC","TLE_LINE1":"1 45783U 20038BF  22186.51455719 -.00000069  00000-0  14232-4 0  9998","MEAN_MOTION_DOT":"-0.00000069","EPOCH":"2022-07-05T12:20:57.741216","BSTAR":"0.00001423200000","SEMIMAJOR_AXIS":"6925.325","RA_OF_ASC_NODE":"106.3696","MEAN_ELEMENT_THEORY":"SGP4","CENTER_NAME":"EARTH","NORAD_CAT_ID":"45783","FILE":"3508171","RCS_SIZE":"LARGE","OBJECT_TYPE":"PAYLOAD","OBJECT_ID":"2020-038BF","ECCENTRICITY":"0.00015010","MEAN_ANOMALY":"285.8271","PERIAPSIS":"546.151","EPHEMERIS_TYPE":"0","REF_FRAME":"TEME","ARG_OF_PERICENTER":"74.2883","MEAN_MOTION_DDOT":"0.0000000000000","CLASSIFICATION_TYPE":"U","MEAN_MOTION":"15.06407632","COUNTRY_CODE":"US","SITE":"AFETR","OBJECT_NAME":"STARLINK-1505","APOAPSIS":"548.230","LAUNCH_DATE":"2020-06-13"},{"MEAN_MOTION":"15.06398001","MEAN_MOTION_DDOT":"0.0000000000000","CLASSIFICATION_TYPE":"U","ARG_OF_PERICENTER":"62.4743","REF_FRAME":"TEME","LAUNCH_DATE":"2020-06-13","SITE":"AFETR","APOAPSIS":"548.430","OBJECT_NAME":"STARLINK-1510","COUNTRY_CODE":"US","MEAN_ANOMALY":"297.6423","OBJECT_ID":"2020-038BG","ECCENTRICITY":"0.00017480","OBJECT_TYPE":"PAYLOAD","RCS_SIZE":"LARGE","PERIAPSIS":"546.009","EPHEMERIS_TYPE":"0","SEMIMAJOR_AXIS":"6925.355","MEAN_MOTION_DOT":"-0.00000791","BSTAR":"-0.00003421100000","EPOCH":"2022-07-05T11:43:49.855008","FILE":"3508171","NORAD_CAT_ID":"45784","CENTER_NAME":"EARTH","RA_OF_ASC_NODE":"106.4744","MEAN_ELEMENT_THEORY":"SGP4","TLE_LINE2":"2 45784  53.0536 106.4744 0001748  62.4743 297.6423 15.06398001114309","DECAY_DATE":null,"PERIOD":"95.592","INCLINATION":"53.0536","ELEMENT_SET_NO":"999","REV_AT_EPOCH":"11430","TLE_LINE1":"1 45784U 20038BG  22186.48877147 -.00000791  00000-0 -34211-4 0  9990","TIME_SYSTEM":"UTC","GP_ID":"207473949"},{"PERIAPSIS":"545.710","EPHEMERIS_TYPE":"0","MEAN_ANOMALY":"293.2071","OBJECT_ID":"2020-038BH","ECCENTRICITY":"0.00021870","OBJECT_TYPE":"PAYLOAD","RCS_SIZE":"LARGE","LAUNCH_DATE":"2020-06-13","SITE":"AFETR","OBJECT_NAME":"STARLINK-1512","APOAPSIS":"548.739","COUNTRY_CODE":"US","MEAN_MOTION":"15.06396329","MEAN_MOTION_DDOT":"0.0000000000000","CLASSIFICATION_TYPE":"U","REF_FRAME":"TEME","ARG_OF_PERICENTER":"66.9148","TLE_LINE1":"1 45785U 20038BH  22186.13860671 -.00000550  00000-0 -18004-4 0  9992","TIME_SYSTEM":"UTC","GP_ID":"207474701","TLE_LINE2":"2 45785  53.0569 108.0560 0002187  66.9148 293.2071 15.06396329114252","DECAY_DATE":null,"PERIOD":"95.592","INCLINATION":"53.0569","ELEMENT_SET_NO":"999","REV_AT_EPOCH":"11425","FILE":"3508171","NORAD_CAT_ID":"45785","RA_OF_ASC_NODE":"108.0560","MEAN_ELEMENT_THEORY":"SGP4","CENTER_NAME":"EARTH","SEMIMAJOR_AXIS":"6925.360","MEAN_MOTION_DOT":"-0.00000550","EPOCH":"2022-07-05T03:19:35.619744","BSTAR":"-0.00001800400000"},{"ELEMENT_SET_NO":"999","REV_AT_EPOCH":"11424","INCLINATION":"53.0561","TLE_LINE2":"2 45786  53.0561 108.4343 0002239  59.3326 300.7883 15.06386990114247","DECAY_DATE":null,"PERIOD":"95.593","GP_ID":"207475447","TLE_LINE1":"1 45786U 20038BJ  22186.05753222 -.00003061  00000-0 -18670-3 0  9995","TIME_SYSTEM":"UTC","MEAN_MOTION_DOT":"-0.00003061","BSTAR":"-0.00018670000000","EPOCH":"2022-07-05T01:22:50.783808","SEMIMAJOR_AXIS":"6925.388","CENTER_NAME":"EARTH","RA_OF_ASC_NODE":"108.4343","MEAN_ELEMENT_THEORY":"SGP4","NORAD_CAT_ID":"45786","FILE":"3508171","RCS_SIZE":"LARGE","OBJECT_TYPE":"PAYLOAD","OBJECT_ID":"2020-038BJ","ECCENTRICITY":"0.00022390","MEAN_ANOMALY":"300.7883","PERIAPSIS":"545.703","EPHEMERIS_TYPE":"0","ARG_OF_PERICENTER":"59.3326","REF_FRAME":"TEME","MEAN_MOTION_DDOT":"0.0000000000000","CLASSIFICATION_TYPE":"U","MEAN_MOTION":"15.06386990","COUNTRY_CODE":"US","SITE":"AFETR","APOAPSIS":"548.804","OBJECT_NAME":"STARLINK-1513","LAUNCH_DATE":"2020-06-13"},{"GP_ID":"207473700","TLE_LINE1":"1 45787U 20038BK  22186.19757502 -.00001530  00000-0 -83786-4 0  9996","TIME_SYSTEM":"UTC","REV_AT_EPOCH":"11426","ELEMENT_SET_NO":"999","INCLINATION":"53.0560","PERIOD":"95.592","TLE_LINE2":"2 45787  53.0560 107.8017 0001887  67.3122 292.8066 15.06404962114265","DECAY_DATE":null,"RA_OF_ASC_NODE":"107.8017","MEAN_ELEMENT_THEORY":"SGP4","CENTER_NAME":"EARTH","NORAD_CAT_ID":"45787","FILE":"3508171","EPOCH":"2022-07-05T04:44:30.481728","BSTAR":"-0.00008378600000","MEAN_MOTION_DOT":"-0.00001530","SEMIMAJOR_AXIS":"6925.333","EPHEMERIS_TYPE":"0","PERIAPSIS":"545.892","RCS_SIZE":"LARGE","OBJECT_TYPE":"PAYLOAD","ECCENTRICITY":"0.00018870","OBJECT_ID":"2020-038BK","MEAN_ANOMALY":"292.8066","COUNTRY_CODE":"US","OBJECT_NAME":"STARLINK-1517","APOAPSIS":"548.505","SITE":"AFETR","LAUNCH_DATE":"2020-06-13","ARG_OF_PERICENTER":"67.3122","REF_FRAME":"TEME","CLASSIFICATION_TYPE":"U","MEAN_MOTION_DDOT":"0.0000000000000","MEAN_MOTION":"15.06404962"},{"PERIAPSIS":"546.240","EPHEMERIS_TYPE":"0","OBJECT_ID":"2020-055A","ECCENTRICITY":"0.00014400","MEAN_ANOMALY":"276.5526","RCS_SIZE":"LARGE","OBJECT_TYPE":"PAYLOAD","LAUNCH_DATE":"2020-08-07","COUNTRY_CODE":"US","SITE":"AFETR","OBJECT_NAME":"STARLINK-1522","APOAPSIS":"548.235","MEAN_MOTION_DDOT":"0.0000000000000","CLASSIFICATION_TYPE":"U","MEAN_MOTION":"15.06392267","REF_FRAME":"TEME","ARG_OF_PERICENTER":"83.5627","TIME_SYSTEM":"UTC","TLE_LINE1":"1 46027U 20055A   22186.76799063 -.00000523  00000-0 -16234-4 0  9999","GP_ID":"207480849","TLE_LINE2":"2 46027  53.0569  35.2207 0001440  83.5627 276.5526 15.06392267105963","DECAY_DATE":null,"PERIOD":"95.593","ELEMENT_SET_NO":"999","REV_AT_EPOCH":"10596","INCLINATION":"53.0569","NORAD_CAT_ID":"46027","FILE":"3508188","CENTER_NAME":"EARTH","RA_OF_ASC_NODE":"35.2207","MEAN_ELEMENT_THEORY":"SGP4","MEAN_MOTION_DOT":"-0.00000523","BSTAR":"-0.00001623400000","EPOCH":"2022-07-05T18:25:54.390432","SEMIMAJOR_AXIS":"6925.372"},{"SEMIMAJOR_AXIS":"6925.366","EPOCH":"2022-07-05T14:00:30.860928","BSTAR":"-0.00004745500000","MEAN_MOTION_DOT":"-0.00000988","FILE":"3508189","NORAD_CAT_ID":"46028","MEAN_ELEMENT_THEORY":"SGP4","RA_OF_ASC_NODE":"36.0435","CENTER_NAME":"EARTH","PERIOD":"95.592","DECAY_DATE":null,"TLE_LINE2":"2 46028  53.0556  36.0435 0001616  87.5436 272.5738 15.06394421105942","INCLINATION":"53.0556","REV_AT_EPOCH":"10594","ELEMENT_SET_NO":"999","TIME_SYSTEM":"UTC","TLE_LINE1":"1 46028U 20055B   22186.58369052 -.00000988  00000-0 -47455-4 0  9995","GP_ID":"207480671","MEAN_MOTION":"15.06394421","CLASSIFICATION_TYPE":"U","MEAN_MOTION_DDOT":"0.0000000000000","ARG_OF_PERICENTER":"87.5436","REF_FRAME":"TEME","LAUNCH_DATE":"2020-08-07","APOAPSIS":"548.350","OBJECT_NAME":"STARLINK-1523","SITE":"AFETR","COUNTRY_CODE":"US","MEAN_ANOMALY":"272.5738","ECCENTRICITY":"0.00016160","OBJECT_ID":"2020-055B","OBJECT_TYPE":"PAYLOAD","RCS_SIZE":"LARGE","EPHEMERIS_TYPE":"0","PERIAPSIS":"546.112"},{"MEAN_MOTION_DOT":"-0.00000838","BSTAR":"-0.00003739000000","EPOCH":"2022-07-05T13:49:54.283008","SEMIMAJOR_AXIS":"6925.384","NORAD_CAT_ID":"46029","FILE":"3508171","RA_OF_ASC_NODE":"36.0854","CENTER_NAME":"EARTH","MEAN_ELEMENT_THEORY":"SGP4","DECAY_DATE":null,"TLE_LINE2":"2 46029  53.0545  36.0854 0001505  75.0469 285.0687 15.06388484106452","PERIOD":"95.593","ELEMENT_SET_NO":"999","REV_AT_EPOCH":"10645","INCLINATION":"53.0545","TIME_SYSTEM":"UTC","TLE_LINE1":"1 46029U 20055C   22186.57632272 -.00000838  00000-0 -37390-4 0  9993","GP_ID":"207475226","MEAN_MOTION_DDOT":"0.0000000000000","CLASSIFICATION_TYPE":"U","MEAN_MOTION":"15.06388484","REF_FRAME":"TEME","ARG_OF_PERICENTER":"75.0469","LAUNCH_DATE":"2020-08-07","COUNTRY_CODE":"US","SITE":"AFETR","APOAPSIS":"548.291","OBJECT_NAME":"STARLINK-1526","ECCENTRICITY":"0.00015050","OBJECT_ID":"2020-055C","MEAN_ANOMALY":"285.0687","RCS_SIZE":"LARGE","OBJECT_TYPE":"PAYLOAD","PERIAPSIS":"546.207","EPHEMERIS_TYPE":"0"},{"MEAN_MOTION_DOT":"-0.00000384","BSTAR":"-0.00000688460000","EPOCH":"2022-07-05T17:27:30.294144","SEMIMAJOR_AXIS":"6925.337","NORAD_CAT_ID":"46030","FILE":"3508236","RA_OF_ASC_NODE":"35.4166","MEAN_ELEMENT_THEORY":"SGP4","CENTER_NAME":"EARTH","TLE_LINE2":"2 46030  53.0573  35.4166 0001424  82.0011 278.1140 15.06403920105960","DECAY_DATE":null,"PERIOD":"95.592","ELEMENT_SET_NO":"999","REV_AT_EPOCH":"10596","INCLINATION":"53.0573","TLE_LINE1":"1 46030U 20055D   22186.72743396 -.00000384  00000-0 -68846-5 0  9999","TIME_SYSTEM":"UTC","GP_ID":"207481840","MEAN_MOTION_DDOT":"0.0000000000000","CLASSIFICATION_TYPE":"U","MEAN_MOTION":"15.06403920","ARG_OF_PERICENTER":"82.0011","REF_FRAME":"TEME","LAUNCH_DATE":"2020-08-07","COUNTRY_CODE":"US","SITE":"AFETR","OBJECT_NAME":"STARLINK-1534","APOAPSIS":"548.188","ECCENTRICITY":"0.00014240","OBJECT_ID":"2020-055D","MEAN_ANOMALY":"278.1140","RCS_SIZE":"LARGE","OBJECT_TYPE":"PAYLOAD","PERIAPSIS":"546.215","EPHEMERIS_TYPE":"0"},{"OBJECT_NAME":"STARLINK-1544","APOAPSIS":"548.107","SITE":"AFETR","COUNTRY_CODE":"US","LAUNCH_DATE":"2020-08-07","ARG_OF_PERICENTER":"80.3307","REF_FRAME":"TEME","MEAN_MOTION":"15.06400142","CLASSIFICATION_TYPE":"U","MEAN_MOTION_DDOT":"0.0000000000000","EPHEMERIS_TYPE":"0","PERIAPSIS":"546.319","OBJECT_TYPE":"PAYLOAD","RCS_SIZE":"LARGE","MEAN_ANOMALY":"279.7828","OBJECT_ID":"2020-055E","ECCENTRICITY":"0.00012910","RA_OF_ASC_NODE":"35.3945","CENTER_NAME":"EARTH","MEAN_ELEMENT_THEORY":"SGP4","FILE":"3508197","NORAD_CAT_ID":"46031","SEMIMAJOR_AXIS":"6925.348","EPOCH":"2022-07-05T17:32:48.625440","BSTAR":"-0.00002031600000","MEAN_MOTION_DOT":"-0.00000584","GP_ID":"207480750","TIME_SYSTEM":"UTC","TLE_LINE1":"1 46031U 20055E   22186.73111835 -.00000584  00000-0 -20316-4 0  9999","INCLINATION":"53.0560","REV_AT_EPOCH":"10596","ELEMENT_SET_NO":"999","PERIOD":"95.592","TLE_LINE2":"2 46031  53.0560  35.3945 0001291  80.3307 279.7828 15.06400142105965","DECAY_DATE":null}];
